GLOBALSTAR M035         
1 25851U 99037A   25140.96592659 -.00000101  00000+0 -14173-2 0  9993
2 25851  51.9919 115.6694 0014170 298.0944  97.1332 11.04538650 93255
GLOBALSTAR M032         
1 25852U 99037B   25140.82042256 -.00000060  00000+0  22910-3 0  9994
2 25852  51.9963 303.0815 0012848 120.4932 239.7138 11.19060403131723
GLOBALSTAR M051         
1 25853U 99037C   25141.18830777 -.00000059  00000+0  31652-3 0  9999
2 25853  51.9772 106.0209 0000367 166.7147 193.3673 11.42204837129323
GLOBALSTAR M030         
1 25854U 99037D   25141.08529156 -.00000045  00000+0  62845-3 0  9998
2 25854  51.9882 274.1022 0002900   8.3594 351.7271 11.55109769147010
GLOBALSTAR M048         
1 25872U 99041A   25140.79071484 -.00000062  00000+0  20799-3 0  9997
2 25872  51.9395  40.9556 0013338 134.8953 300.0588 11.33856705121870
GLOBALSTAR M026         
1 25873U 99041B   25140.71933102 -.00000014  00000+0  18439-2 0  9998
2 25873  52.0003 234.4719 0002294 212.2148 306.5855 11.06837906145445
GLOBALSTAR M043         
1 25874U 99041C   25140.76686315 -.00000058  00000+0  30959-3 0  9995
2 25874  51.9358 147.5658 0013682 265.5236 265.1016 11.25694425119780
